{
  "type": "FeatureCollection",
  "features": [
    {
      "type": "Feature",
      "properties": {
        "norad_id": 38091,
        "name": "BEIDOU-2 G5 (C05)",
        "group": "gnss",
        "lat": 1.5925055063129168,
        "lon": 101.18366739434774,
        "alt_km": 35836.11284855162,
        "timestamp": "2025-12-09T21:34:11.649229+00:00",
        "meta_object_name": "BEIDOU-2 G5 (C05)",
        "meta_object_id": "2012-008A",
        "meta_epoch": "2025-12-09T13:51:13.567968",
        "meta_mean_motion": 1.00274291,
        "meta_eccentricity": 0.00125341,
        "meta_inclination": 3.1012,
        "meta_ra_of_asc_node": 70.7102,
        "meta_arg_of_pericenter": 226.3168,
        "meta_mean_anomaly": 48.0938,
        "meta_ephemeris_type": 0,
        "meta_classification_type": "U",
        "meta_norad_cat_id": 38091,
        "meta_element_set_no": 999,
        "meta_rev_at_epoch": 5046,
        "meta_bstar": 0,
        "meta_mean_motion_dot": 5.8e-07,
        "meta_mean_motion_ddot": 0,
        "tle_line1": "1 38091U 12008A   25343.57724037  .00000058  00000+0  00000+0 0  9995",
        "tle_line2": "2 38091   3.1012  70.7102 0012534 226.3168  48.0938  1.00274291 50463"
      },
      "geometry": {
        "type": "Point",
        "coordinates": [
          101.18366739434774,
          1.5925055063129168
        ]
      }
    },
    {
      "type": "Feature",
      "properties": {
        "norad_id": 38250,
        "name": "BEIDOU-2 M3 (C11)",
        "group": "gnss",
        "lat": 7.16694835569281,
        "lon": 126.3555409347411,
        "alt_km": 21542.1669012071,
        "timestamp": "2025-12-09T21:34:11.649241+00:00",
        "meta_object_name": "BEIDOU-2 M3 (C11)",
        "meta_object_id": "2012-018A",
        "meta_epoch": "2025-12-09T02:31:53.071968",
        "meta_mean_motion": 1.86229533,
        "meta_eccentricity": 0.00244707,
        "meta_inclination": 55.9232,
        "meta_ra_of_asc_node": 311.2798,
        "meta_arg_of_pericenter": 273.7022,
        "meta_mean_anomaly": 86.0063,
        "meta_ephemeris_type": 0,
        "meta_classification_type": "U",
        "meta_norad_cat_id": 38250,
        "meta_element_set_no": 999,
        "meta_rev_at_epoch": 9240,
        "meta_bstar": 0,
        "meta_mean_motion_dot": -7.5e-07,
        "meta_mean_motion_ddot": 0,
        "tle_line1": "1 38250U 12018A   25343.10547537 -.00000075  00000+0  00000+0 0  9990",
        "tle_line2": "2 38250  55.9232 311.2798 0024470 273.7022  86.0063  1.86229533 92404"
      },
      "geometry": {
        "type": "Point",
        "coordinates": [
          126.3555409347411,
          7.16694835569281
        ]
      }
    },
    {
      "type": "Feature",
      "properties": {
        "norad_id": 38251,
        "name": "BEIDOU-2 M4 (C12)",
        "group": "gnss",
        "lat": -29.944748631975106,
        "lon": 153.49023026391038,
        "alt_km": 21510.06498772149,
        "timestamp": "2025-12-09T21:34:11.649252+00:00",
        "meta_object_name": "BEIDOU-2 M4 (C12)",
        "meta_object_id": "2012-018B",
        "meta_epoch": "2025-12-09T00:54:02.015712",
        "meta_mean_motion": 1.86229239,
        "meta_eccentricity": 0.00156205,
        "meta_inclination": 55.8247,
        "meta_ra_of_asc_node": 310.5113,
        "meta_arg_of_pericenter": 276.8164,
        "meta_mean_anomaly": 82.9941,
        "meta_ephemeris_type": 0,
        "meta_classification_type": "U",
        "meta_norad_cat_id": 38251,
        "meta_element_set_no": 999,
        "meta_rev_at_epoch": 9240,
        "meta_bstar": 0,
        "meta_mean_motion_dot": -7.4e-07,
        "meta_mean_motion_ddot": 0,
        "tle_line1": "1 38251U 12018B   25343.03752333 -.00000074  00000+0  00000+0 0  9994",
        "tle_line2": "2 38251  55.8247 310.5113 0015620 276.8164  82.9941  1.86229239 92404"
      },
      "geometry": {
        "type": "Point",
        "coordinates": [
          153.49023026391038,
          -29.944748631975106
        ]
      }
    },
    {
      "type": "Feature",
      "properties": {
        "norad_id": 38652,
        "name": "SES-5 (EGNOS/PRN 136)",
        "group": "gnss",
        "lat": 0.0740359374957499,
        "lon": 47.42303790370383,
        "alt_km": 35794.22994940969,
        "timestamp": "2025-12-09T21:34:11.649264+00:00",
        "meta_object_name": "SES-5 (EGNOS/PRN 136)",
        "meta_object_id": "2012-036A",
        "meta_epoch": "2025-12-09T13:35:37.563072",
        "meta_mean_motion": 1.00271327,
        "meta_eccentricity": 0.00021379,
        "meta_inclination": 0.0591,
        "meta_ra_of_asc_node": 304.0485,
        "meta_arg_of_pericenter": 310.5029,
        "meta_mean_anomaly": 32.8946,
        "meta_ephemeris_type": 0,
        "meta_classification_type": "U",
        "meta_norad_cat_id": 38652,
        "meta_element_set_no": 999,
        "meta_rev_at_epoch": 4256,
        "meta_bstar": 0,
        "meta_mean_motion_dot": 3.6e-07,
        "meta_mean_motion_ddot": 0,
        "tle_line1": "1 38652U 12036A   25343.56640698  .00000036  00000+0  00000+0 0  9994",
        "tle_line2": "2 38652   0.0591 304.0485 0002137 310.5029  32.8946  1.00271327 42560"
      },
      "geometry": {
        "type": "Point",
        "coordinates": [
          47.42303790370383,
          0.0740359374957499
        ]
      }
    },
    {
      "type": "Feature",
      "properties": {
        "norad_id": 38775,
        "name": "BEIDOU-2 M6 (C14)",
        "group": "gnss",
        "lat": 40.543305746517916,
        "lon": 103.81057347841076,
        "alt_km": 21510.653492358066,
        "timestamp": "2025-12-09T21:34:11.649275+00:00",
        "meta_object_name": "BEIDOU-2 M6 (C14)",
        "meta_object_id": "2012-050B",
        "meta_epoch": "2025-12-09T06:50:59.454240",
        "meta_mean_motion": 1.86230769,
        "meta_eccentricity": 0.00110803,
        "meta_inclination": 56.3755,
        "meta_ra_of_asc_node": 69.1821,
        "meta_arg_of_pericenter": 345.0946,
        "meta_mean_anomaly": 14.8952,
        "meta_ephemeris_type": 0,
        "meta_classification_type": "U",
        "meta_norad_cat_id": 38775,
        "meta_element_set_no": 999,
        "meta_rev_at_epoch": 8977,
        "meta_bstar": 0,
        "meta_mean_motion_dot": -4.8e-07,
        "meta_mean_motion_ddot": 0,
        "tle_line1": "1 38775U 12050B   25343.28541035 -.00000048  00000+0  00000+0 0  9994",
        "tle_line2": "2 38775  56.3755  69.1821 0011080 345.0946  14.8952  1.86230769 89773"
      },
      "geometry": {
        "type": "Point",
        "coordinates": [
          103.81057347841076,
          40.543305746517916
        ]
      }
    },
    {
      "type": "Feature",
      "properties": {
        "norad_id": 38779,
        "name": "GSAT-10 (GAGAN/PRN 128)",
        "group": "gnss",
        "lat": -0.0002213559337801595,
        "lon": 125.41987971846486,
        "alt_km": 35776.53762300266,
        "timestamp": "2025-12-09T21:34:11.649287+00:00",
        "meta_object_name": "GSAT-10 (GAGAN/PRN 128)",
        "meta_object_id": "2012-051B",
        "meta_epoch": "2025-12-09T08:49:57.427392",
        "meta_mean_motion": 1.00273307,
        "meta_eccentricity": 0.00021698,
        "meta_inclination": 0.0157,
        "meta_ra_of_asc_node": 266.0566,
        "meta_arg_of_pericenter": 219.6476,
        "meta_mean_anomaly": 168.1336,
        "meta_ephemeris_type": 0,
        "meta_classification_type": "U",
        "meta_norad_cat_id": 38779,
        "meta_element_set_no": 999,
        "meta_rev_at_epoch": 4819,
        "meta_bstar": 0,
        "meta_mean_motion_dot": -1.63e-06,
        "meta_mean_motion_ddot": 0,
        "tle_line1": "1 38779U 12051B   25343.36802578 -.00000163  00000+0  00000+0 0  9998",
        "tle_line2": "2 38779   0.0157 266.0566 0002169 219.6476 168.1336  1.00273307 48196"
      },
      "geometry": {
        "type": "Point",
        "coordinates": [
          125.41987971846486,
          -0.0002213559337801595
        ]
      }
    },
    {
      "type": "Feature",
      "properties": {
        "norad_id": 38833,
        "name": "GPS BIIF-3  (PRN 24)",
        "group": "gnss",
        "lat": 22.81626216461614,
        "lon": 169.46016776259674,
        "alt_km": 19795.05457198872,
        "timestamp": "2025-12-09T21:34:11.649299+00:00",
        "meta_object_name": "GPS BIIF-3  (PRN 24)",
        "meta_object_id": "2012-053A",
        "meta_epoch": "2025-12-09T08:40:03.793728",
        "meta_mean_motion": 2.00564926,
        "meta_eccentricity": 0.01757344,
        "meta_inclination": 53.5568,
        "meta_ra_of_asc_node": 151.3769,
        "meta_arg_of_pericenter": 63.947,
        "meta_mean_anomaly": 297.8481,
        "meta_ephemeris_type": 0,
        "meta_classification_type": "U",
        "meta_norad_cat_id": 38833,
        "meta_element_set_no": 999,
        "meta_rev_at_epoch": 9563,
        "meta_bstar": 0,
        "meta_mean_motion_dot": 6.3e-07,
        "meta_mean_motion_ddot": 0,
        "tle_line1": "1 38833U 12053A   25343.36115502  .00000063  00000+0  00000+0 0  9993",
        "tle_line2": "2 38833  53.5568 151.3769 0175734  63.9470 297.8481  2.00564926 95633"
      },
      "geometry": {
        "type": "Point",
        "coordinates": [
          169.46016776259674,
          22.81626216461614
        ]
      }
    }
  ]
}